[
  {
    "OBJECT_NAME": "STARLINK-31842",
    "OBJECT_ID": "24084U",
    "EPOCH": "2025-11-11T02:07:52.123008",
    "MEAN_MOTION": 15.27574461,
    "ECCENTRICITY": 0.0001193,
    "INCLINATION": 43.0027,
    "RA_OF_ASC_NODE": 348.2185,
    "ARG_OF_PERICENTER": 264.4754,
    "MEAN_ANOMALY": 95.5961,
    "EPHEMERIS_TYPE": 0,
    "CLASSIFICATION_TYPE": "U",
    "NORAD_CAT_ID": 59672,
    "ELEMENT_SET_NO": 999,
    "REV_AT_EPOCH": 8627,
    "BSTAR": 6.7313e-05,
    "MEAN_MOTION_DOT": 1.59e-05,
    "MEAN_MOTION_DDOT": 0.0,
    "TLE_LINE1": "1 59672U 24084U   25315.08879772  .00001590  00000+0  67313-4 0  9999",
    "TLE_LINE2": "2 59672  43.0027 348.2185 0001193 264.4754  95.5961 15.27574461 86274",
    "COMMENT": "Grouped by shell and plane from TLE"
  },
  {
    "OBJECT_NAME": "STARLINK-31875",
    "OBJECT_ID": "24084W",
    "EPOCH": "2025-11-11T03:19:48.940896",
    "MEAN_MOTION": 15.27574596,
    "ECCENTRICITY": 6.8e-05,
    "INCLINATION": 42.999,
    "RA_OF_ASC_NODE": 347.7313,
    "ARG_OF_PERICENTER": 252.7868,
    "MEAN_ANOMALY": 107.2909,
    "EPHEMERIS_TYPE": 0,
    "CLASSIFICATION_TYPE": "U",
    "NORAD_CAT_ID": 59674,
    "ELEMENT_SET_NO": 999,
    "REV_AT_EPOCH": 8628,
    "BSTAR": 2.5947e-05,
    "MEAN_MOTION_DOT": 4.52e-06,
    "MEAN_MOTION_DDOT": 0.0,
    "TLE_LINE1": "1 59674U 24084W   25315.13876089  .00000452  00000+0  25947-4 0  9998",
    "TLE_LINE2": "2 59674  42.9990 347.7313 0000680 252.7868 107.2909 15.27574596 86289",
    "COMMENT": "Grouped by shell and plane from TLE"
  },
  {
    "OBJECT_NAME": "STARLINK-32349",
    "OBJECT_ID": "24195P",
    "EPOCH": "2025-11-11T07:04:33.150432",
    "MEAN_MOTION": 15.30191723,
    "ECCENTRICITY": 0.0001344,
    "INCLINATION": 53.1607,
    "RA_OF_ASC_NODE": 345.3637,
    "ARG_OF_PERICENTER": 80.4394,
    "MEAN_ANOMALY": 279.6759,
    "EPHEMERIS_TYPE": 0,
    "CLASSIFICATION_TYPE": "U",
    "NORAD_CAT_ID": 61700,
    "ELEMENT_SET_NO": 999,
    "REV_AT_EPOCH": 5905,
    "BSTAR": 0.00017061000000000002,
    "MEAN_MOTION_DOT": 4.696e-05,
    "MEAN_MOTION_DDOT": 0.0,
    "TLE_LINE1": "1 61700U 24195P   25315.29482813  .00004696  00000+0  17061-3 0  9990",
    "TLE_LINE2": "2 61700  53.1607 345.3637 0001344  80.4394 279.6759 15.30191723 59055",
    "COMMENT": "Grouped by shell and plane from TLE"
  },
  {
    "OBJECT_NAME": "STARLINK-32461",
    "OBJECT_ID": "24195Q",
    "EPOCH": "2025-11-11T06:50:52.630368",
    "MEAN_MOTION": 15.30198759,
    "ECCENTRICITY": 0.0001325,
    "INCLINATION": 53.1629,
    "RA_OF_ASC_NODE": 345.3063,
    "ARG_OF_PERICENTER": 82.3406,
    "MEAN_ANOMALY": 277.7745,
    "EPHEMERIS_TYPE": 0,
    "CLASSIFICATION_TYPE": "U",
    "NORAD_CAT_ID": 61701,
    "ELEMENT_SET_NO": 999,
    "REV_AT_EPOCH": 5905,
    "BSTAR": 0.00011447000000000001,
    "MEAN_MOTION_DOT": 3.032e-05,
    "MEAN_MOTION_DDOT": 0.0,
    "TLE_LINE1": "1 61701U 24195Q   25315.28533137  .00003032  00000+0  11447-3 0  9991",
    "TLE_LINE2": "2 61701  53.1629 345.3063 0001325  82.3406 277.7745 15.30198759 59057",
    "COMMENT": "Grouped by shell and plane from TLE"
  },
  {
    "OBJECT_NAME": "STARLINK-32299",
    "OBJECT_ID": "24195R",
    "EPOCH": "2025-11-11T03:23:00.659040",
    "MEAN_MOTION": 15.30200101,
    "ECCENTRICITY": 0.0001084,
    "INCLINATION": 53.1621,
    "RA_OF_ASC_NODE": 345.8283,
    "ARG_OF_PERICENTER": 103.4345,
    "MEAN_ANOMALY": 256.6776,
    "EPHEMERIS_TYPE": 0,
    "CLASSIFICATION_TYPE": "U",
    "NORAD_CAT_ID": 61702,
    "ELEMENT_SET_NO": 999,
    "REV_AT_EPOCH": 5910,
    "BSTAR": 7.900700000000001e-05,
    "MEAN_MOTION_DOT": 1.982e-05,
    "MEAN_MOTION_DDOT": 0.0,
    "TLE_LINE1": "1 61702U 24195R   25315.14097985  .00001982  00000+0  79007-4 0  9992",
    "TLE_LINE2": "2 61702  53.1621 345.8283 0001084 103.4345 256.6776 15.30200101 59109",
    "COMMENT": "Grouped by shell and plane from TLE"
  },
  {
    "OBJECT_NAME": "STARLINK-32335",
    "OBJECT_ID": "24195S",
    "EPOCH": "2025-11-11T06:22:00.375168",
    "MEAN_MOTION": 15.30198986,
    "ECCENTRICITY": 0.0001065,
    "INCLINATION": 53.1609,
    "RA_OF_ASC_NODE": 345.1822,
    "ARG_OF_PERICENTER": 77.8359,
    "MEAN_ANOMALY": 282.2761,
    "EPHEMERIS_TYPE": 0,
    "CLASSIFICATION_TYPE": "U",
    "NORAD_CAT_ID": 61703,
    "ELEMENT_SET_NO": 999,
    "REV_AT_EPOCH": 5912,
    "BSTAR": 0.0,
    "MEAN_MOTION_DOT": -3.278e-05,
    "MEAN_MOTION_DDOT": 0.0,
    "TLE_LINE1": "1 61703U 24195S   25315.26528212 -.00003278  00000+0 -98587-4 0  9994",
    "TLE_LINE2": "2 61703  53.1609 345.1822 0001065  77.8359 282.2761 15.30198986 59124",
    "COMMENT": "Grouped by shell and plane from TLE"
  },
  {
    "OBJECT_NAME": "STARLINK-32387",
    "OBJECT_ID": "24195T",
    "EPOCH": "2025-11-11T06:00:43.828992",
    "MEAN_MOTION": 15.30193791,
    "ECCENTRICITY": 0.0001562,
    "INCLINATION": 53.1598,
    "RA_OF_ASC_NODE": 345.0872,
    "ARG_OF_PERICENTER": 86.7082,
    "MEAN_ANOMALY": 273.4098,
    "EPHEMERIS_TYPE": 0,
    "CLASSIFICATION_TYPE": "U",
    "NORAD_CAT_ID": 61704,
    "ELEMENT_SET_NO": 999,
    "REV_AT_EPOCH": 5905,
    "BSTAR": 7.7409e-06,
    "MEAN_MOTION_DOT": -1.3e-06,
    "MEAN_MOTION_DDOT": 0.0,
    "TLE_LINE1": "1 61704U 24195T   25315.25050728 -.00000130  00000+0  77409-5 0  9990",
    "TLE_LINE2": "2 61704  53.1598 345.0872 0001562  86.7082 273.4098 15.30193791 59056",
    "COMMENT": "Grouped by shell and plane from TLE"
  },
  {
    "OBJECT_NAME": "STARLINK-32515",
    "OBJECT_ID": "24195U",
    "EPOCH": "2025-11-11T05:59:22.596576",
    "MEAN_MOTION": 15.30190744,
    "ECCENTRICITY": 0.0001032,
    "INCLINATION": 53.1593,
    "RA_OF_ASC_NODE": 345.7907,
    "ARG_OF_PERICENTER": 48.5005,
    "MEAN_ANOMALY": 311.6084,
    "EPHEMERIS_TYPE": 0,
    "CLASSIFICATION_TYPE": "U",
    "NORAD_CAT_ID": 61705,
    "ELEMENT_SET_NO": 999,
    "REV_AT_EPOCH": 5904,
    "BSTAR": 3.2188000000000004e-06,
    "MEAN_MOTION_DOT": -2.64e-06,
    "MEAN_MOTION_DDOT": 0.0,
    "TLE_LINE1": "1 61705U 24195U   25315.24956709 -.00000264  00000+0  32188-5 0  9997",
    "TLE_LINE2": "2 61705  53.1593 345.7907 0001032  48.5005 311.6084 15.30190744 59045",
    "COMMENT": "Grouped by shell and plane from TLE"
  },
  {
    "OBJECT_NAME": "STARLINK-32533",
    "OBJECT_ID": "24195V",
    "EPOCH": "2025-11-11T06:03:46.406016",
    "MEAN_MOTION": 15.30190727,
    "ECCENTRICITY": 0.000132,
    "INCLINATION": 53.1616,
    "RA_OF_ASC_NODE": 345.1016,
    "ARG_OF_PERICENTER": 109.0192,
    "MEAN_ANOMALY": 251.0952,
    "EPHEMERIS_TYPE": 0,
    "CLASSIFICATION_TYPE": "U",
    "NORAD_CAT_ID": 61706,
    "ELEMENT_SET_NO": 999,
    "REV_AT_EPOCH": 5905,
    "BSTAR": 4.572200000000001e-06,
    "MEAN_MOTION_DOT": -2.24e-06,
    "MEAN_MOTION_DDOT": 0.0,
    "TLE_LINE1": "1 61706U 24195V   25315.25262044 -.00000224  00000+0  45722-5 0  9995",
    "TLE_LINE2": "2 61706  53.1616 345.1016 0001320 109.0192 251.0952 15.30190727 59050",
    "COMMENT": "Grouped by shell and plane from TLE"
  },
  {
    "OBJECT_NAME": "STARLINK-32539",
    "OBJECT_ID": "24213Q",
    "EPOCH": "2025-11-11T07:22:47.451360",
    "MEAN_MOTION": 15.30200084,
    "ECCENTRICITY": 0.00013,
    "INCLINATION": 53.1588,
    "RA_OF_ASC_NODE": 345.4842,
    "ARG_OF_PERICENTER": 61.7858,
    "MEAN_ANOMALY": 298.3274,
    "EPHEMERIS_TYPE": 0,
    "CLASSIFICATION_TYPE": "U",
    "NORAD_CAT_ID": 62022,
    "ELEMENT_SET_NO": 999,
    "REV_AT_EPOCH": 5520,
    "BSTAR": 0.00029813,
    "MEAN_MOTION_DOT": 8.481e-05,
    "MEAN_MOTION_DDOT": 0.0,
    "TLE_LINE1": "1 62022U 24213Q   25315.30749365  .00008481  00000+0  29813-3 0  9993",
    "TLE_LINE2": "2 62022  53.1588 345.4842 0001300  61.7858 298.3274 15.30200084 55203",
    "COMMENT": "Grouped by shell and plane from TLE"
  },
  {
    "OBJECT_NAME": "STARLINK-33650",
    "OBJECT_ID": "25057Q",
    "EPOCH": "2025-11-11T02:27:30.900672",
    "MEAN_MOTION": 15.27597794,
    "ECCENTRICITY": 7.29e-05,
    "INCLINATION": 43.0027,
    "RA_OF_ASC_NODE": 340.3497,
    "ARG_OF_PERICENTER": 263.0632,
    "MEAN_ANOMALY": 97.0137,
    "EPHEMERIS_TYPE": 0,
    "CLASSIFICATION_TYPE": "U",
    "NORAD_CAT_ID": 63321,
    "ELEMENT_SET_NO": 999,
    "REV_AT_EPOCH": 3760,
    "BSTAR": 0.0020305,
    "MEAN_MOTION_DOT": 0.00056069,
    "MEAN_MOTION_DDOT": 0.0,
    "TLE_LINE1": "1 63321U 25057Q   25315.10244098  .00056069  00000+0  20305-2 0  9995",
    "TLE_LINE2": "2 63321  43.0027 340.3497 0000729 263.0632  97.0137 15.27597794 37602",
    "COMMENT": "Grouped by shell and plane from TLE"
  },
  {
    "OBJECT_NAME": "STARLINK-33607",
    "OBJECT_ID": "25057S",
    "EPOCH": "2025-11-11T02:47:51.908928",
    "MEAN_MOTION": 15.27595977,
    "ECCENTRICITY": 7.48e-05,
    "INCLINATION": 42.9993,
    "RA_OF_ASC_NODE": 340.4526,
    "ARG_OF_PERICENTER": 264.9587,
    "MEAN_ANOMALY": 95.1179,
    "EPHEMERIS_TYPE": 0,
    "CLASSIFICATION_TYPE": "U",
    "NORAD_CAT_ID": 63323,
    "ELEMENT_SET_NO": 999,
    "REV_AT_EPOCH": 3760,
    "BSTAR": 0.0009699600000000001,
    "MEAN_MOTION_DOT": 0.00026538,
    "MEAN_MOTION_DDOT": 0.0,
    "TLE_LINE1": "1 63323U 25057S   25315.11657302  .00026538  00000+0  96996-3 0  9992",
    "TLE_LINE2": "2 63323  42.9993 340.4526 0000748 264.9587  95.1179 15.27595977 37604",
    "COMMENT": "Grouped by shell and plane from TLE"
  },
  {
    "OBJECT_NAME": "STARLINK-33619",
    "OBJECT_ID": "25057T",
    "EPOCH": "2025-11-11T02:03:27.436608",
    "MEAN_MOTION": 15.27594084,
    "ECCENTRICITY": 8.68e-05,
    "INCLINATION": 43.0005,
    "RA_OF_ASC_NODE": 340.2143,
    "ARG_OF_PERICENTER": 245.4141,
    "MEAN_ANOMALY": 114.662,
    "EPHEMERIS_TYPE": 0,
    "CLASSIFICATION_TYPE": "U",
    "NORAD_CAT_ID": 63324,
    "ELEMENT_SET_NO": 999,
    "REV_AT_EPOCH": 3764,
    "BSTAR": 0.0011676,
    "MEAN_MOTION_DOT": 0.00032022,
    "MEAN_MOTION_DDOT": 0.0,
    "TLE_LINE1": "1 63324U 25057T   25315.08573422  .00032022  00000+0  11676-2 0  9995",
    "TLE_LINE2": "2 63324  43.0005 340.2143 0000868 245.4141 114.6620 15.27594084 37647",
    "COMMENT": "Grouped by shell and plane from TLE"
  }
]